[{"OBJECT_NAME":"STARLINK-34793","OBJECT_ID":"2025-165J","EPOCH":"2026-03-09T23:04:27.651360","MEAN_MOTION":15.05646458,"ECCENTRICITY":7.12e-5,"INCLINATION":97.6031,"RA_OF_ASC_NODE":147.5308,"ARG_OF_PERICENTER":102.7137,"MEAN_ANOMALY":257.417,"EPHEMERIS_TYPE":0,"CLASSIFICATION_TYPE":"U","NORAD_CAT_ID":65064,"ELEMENT_SET_NO":999,"REV_AT_EPOCH":3483,"BSTAR":0.00057183585,"MEAN_MOTION_DOT":8.199e-5,"MEAN_MOTION_DDOT":0},{"OBJECT_NAME":"UNISAT","OBJECT_ID":"2000-057C","EPOCH":"2026-03-09T10:21:07.624800","MEAN_MOTION":15.08907267,"ECCENTRICITY":0.00363457,"INCLINATION":64.544,"RA_OF_ASC_NODE":74.146,"ARG_OF_PERICENTER":312.3548,"MEAN_ANOMALY":47.4494,"EPHEMERIS_TYPE":0,"CLASSIFICATION_TYPE":"U","NORAD_CAT_ID":26547,"ELEMENT_SET_NO":999,"REV_AT_EPOCH":38146,"BSTAR":0.00046170414,"MEAN_MOTION_DOT":7.242e-5,"MEAN_MOTION_DDOT":0}]
